NORAD_CAT_ID,OBJECT_NAME,OBJECT_TYPE,EPOCH,MEAN_MOTION,ECCENTRICITY,INCLINATION,RA_OF_ASC_NODE,ARG_OF_PERICENTER,MEAN_ANOMALY,BSTAR,MEAN_MOTION_DOT,MEAN_MOTION_DDOT,TLE_LINE0,TLE_LINE1,TLE_LINE2,SEMIMAJOR_AXIS,PERIOD,APOGEE,PERIGEE,DECAYED
52850.0,STARLINK-4187,PAYLOAD,2023-07-20 15:39:42,15.08897471,9.27e-05,53.2181,37.3554,124.0007,236.1073,-0.00068412,-0.00011176,0.0,0 STARLINK-4187,1 52850U 22062W   23201.65258007 -.00011176  00000-0 -68412-3 0  9995,2 52850  53.2181  37.3554 0000927 124.0007 236.1073 15.08897471 60896,6917.705,95.434,540.211,538.928,0.0
52850.0,STARLINK-4187,PAYLOAD,2023-07-20 22:01:14,15.08852992,0.0001081,53.2173,36.1691,108.0109,252.1001,0.0001417,1.969e-05,0.0,0 STARLINK-4187,1 52850U 22062W   23201.91753340  .00001969  00000-0  14170-3 0  9993,2 52850  53.2173  36.1691 0001081 108.0109 252.1001 15.08852992 60936,6917.841,95.437,540.453,538.958,0.0
52850.0,STARLINK-4187,PAYLOAD,2023-07-21 07:33:34,15.0883916,0.0001117,53.2177,34.3838,128.9693,231.1399,0.00012018,1.625e-05,0.0,0 STARLINK-4187,1 52850U 22062W   23202.31498175  .00001625  00000-0  12018-3 0  9998,2 52850  53.2177  34.3838 0001117 128.9693 231.1399 15.08839160 60997,6917.883,95.438,540.521,538.975,0.0
52850.0,STARLINK-4187,PAYLOAD,2023-07-23 21:33:37,15.08843054,0.0001112,53.2176,22.7893,91.8374,268.2745,3.8383e-05,3.23e-06,0.0,0 STARLINK-4187,1 52850U 22062W   23204.89834607  .00000323  00000-0  38383-4 0  9995,2 52850  53.2176  22.7893 0001112  91.8374 268.2745 15.08843054 60899,6917.871,95.437,540.505,538.967,0.0
52850.0,STARLINK-4187,PAYLOAD,2023-07-25 11:42:53,15.08837471,0.0001047,53.2187,15.6524,92.986,267.1252,-2.922e-06,-3.34e-06,0.0,0 STARLINK-4187,1 52850U 22062W   23206.48811358 -.00000334  00000-0 -29220-5 0  9995,2 52850  53.2187  15.6524 0001047  92.9860 267.1252 15.08837471 61137,6917.888,95.438,540.477,539.029,0.0
52850.0,STARLINK-4187,PAYLOAD,2023-07-26 13:09:03,15.08842698,0.0001266,53.2191,10.8945,113.6993,246.4132,-2.1135e-05,-6.24e-06,0.0,0 STARLINK-4187,1 52850U 22062W   23207.54795172 -.00000624  00000-0 -21135-4 0  9996,2 52850  53.2191  10.8945 0001266 113.6993 246.4132 15.08842698 61298,6917.872,95.437,540.613,538.861,0.0
52850.0,STARLINK-4187,PAYLOAD,2023-07-26 19:30:34,15.08850455,9.48e-05,53.2184,9.7056,89.5547,270.5554,6.509e-05,7.49e-06,0.0,0 STARLINK-4187,1 52850U 22062W   23207.81290353  .00000749  00000-0  65090-4 0  9991,2 52850  53.2184   9.7056 0000948  89.5547 270.5554 15.08850455 61333,6917.848,95.437,540.369,539.058,0.0
52850.0,STARLINK-4187,PAYLOAD,2023-07-27 11:24:27,15.08831633,0.0001177,53.2197,6.7327,106.8438,253.2683,2.8175e-05,1.61e-06,0.0,0 STARLINK-4187,1 52850U 22062W   23208.47531869  .00000161  00000-0  28175-4 0  9995,2 52850  53.2197   6.7327 0001177 106.8438 253.2683 15.08831633 61925,6917.906,95.438,540.585,538.957,0.0
52850.0,STARLINK-4187,PAYLOAD,2023-07-27 20:56:46,15.0883588,0.0001214,53.2196,4.9492,111.1192,248.993,6.3011e-05,7.15e-06,0.0,0 STARLINK-4187,1 52850U 22062W   23208.87275631  .00000715  00000-0  63011-4 0  9994,2 52850  53.2196   4.9492 0001214 111.1192 248.9930 15.08835880 61491,6917.893,95.438,540.598,538.918,0.0
52850.0,STARLINK-4187,PAYLOAD,2023-07-28 09:39:51,15.08834556,9.95e-05,53.2185,2.5677,86.3787,273.7319,4.6686e-05,4.55e-06,0.0,0 STARLINK-4187,1 52850U 22062W   23209.40267972  .00000455  00000-0  46686-4 0  9993,2 52850  53.2185   2.5677 0000995  86.3787 273.7319 15.08834556 61571,6917.897,95.438,540.45,539.074,0.0
52850.0,STARLINK-4187,PAYLOAD,2023-07-28 22:22:56,15.08844877,9.51e-05,53.2179,0.1892,89.386,270.7241,3.7734e-05,3.13e-06,0.0,0 STARLINK-4187,1 52850U 22062W   23209.93259383  .00000313  00000-0  37734-4 0  9995,2 52850  53.2179   0.1892 0000951  89.3860 270.7241 15.08844877 62146,6917.865,95.437,540.388,539.073,0.0
52850.0,STARLINK-4187,PAYLOAD,2023-07-29 09:30:38,15.08829638,5.07e-05,53.2188,358.1083,112.5575,247.5471,9.4669e-05,1.219e-05,0.0,0 STARLINK-4187,1 52850U 22062W   23210.39628164  .00001219  00000-0  94669-4 0  9990,2 52850  53.2188 358.1083 0000507 112.5575 247.5471 15.08829638 62216,6917.912,95.438,540.128,539.426,0.0
52850.0,STARLINK-4187,PAYLOAD,2023-07-29 17:27:33,15.08847676,8.55e-05,53.2181,356.6209,94.2809,265.8281,0.00015466,2.175e-05,0.0,0 STARLINK-4187,1 52850U 22062W   23210.72747104  .00002175  00000-0  15466-3 0  9992,2 52850  53.2181 356.6209 0000855  94.2809 265.8281 15.08847676 62263,6917.857,95.437,540.313,539.13,0.0
52850.0,STARLINK-4187,PAYLOAD,2023-07-30 09:21:26,15.08829638,9.54e-05,53.2176,353.6473,69.8636,290.2459,2.1386e-05,5.3e-07,0.0,0 STARLINK-4187,1 52850U 22062W   23211.38988690  .00000053  00000-0  21386-4 0  9994,2 52850  53.2176 353.6473 0000954  69.8636 290.2459 15.08829638 62361,6917.912,95.438,540.437,539.117,0.0
52850.0,STARLINK-4187,PAYLOAD,2023-07-30 14:07:35,15.08836187,9.01e-05,53.2171,352.7573,68.1756,291.9332,3.1517e-05,2.14e-06,0.0,0 STARLINK-4187,1 52850U 22062W   23211.58860274  .00000214  00000-0  31517-4 0  9999,2 52850  53.2171 352.7573 0000901  68.1756 291.9332 15.08836187 62392,6917.892,95.438,540.38,539.134,0.0
52850.0,STARLINK-4187,PAYLOAD,2023-07-31 15:33:44,15.08848917,0.0001049,53.2173,347.9971,80.5276,279.5835,3.1446e-05,2.13e-06,0.0,0 STARLINK-4187,1 52850U 22062W   23212.64843416  .00000213  00000-0  31446-4 0  9996,2 52850  53.2173 347.9971 0001049  80.5276 279.5835 15.08848917 62553,6917.853,95.437,540.444,538.992,0.0
52850.0,STARLINK-4187,PAYLOAD,2023-08-01 15:24:30,15.08863938,0.0001028,53.2176,343.536,82.4241,277.6868,0.00036022,5.453e-05,0.0,0 STARLINK-4187,1 52850U 22062W   23213.64202097  .00005453  00000-0  36022-3 0  9996,2 52850  53.2176 343.5360 0001028  82.4241 277.6868 15.08863938 62702,6917.807,95.436,540.383,538.961,0.0
52850.0,STARLINK-4187,PAYLOAD,2023-08-02 08:53:45,15.08841243,0.0001121,53.218,340.2647,92.5339,267.5782,-7.3378e-05,-1.455e-05,0.0,0 STARLINK-4187,1 52850U 22062W   23214.37066866 -.00001455  00000-0 -73378-4 0  9995,2 52850  53.2180 340.2647 0001121  92.5339 267.5782 15.08841243 62813,6917.877,95.437,540.517,538.966,0.0
52850.0,STARLINK-4187,PAYLOAD,2023-08-03 16:41:28,15.08847282,0.0001019,53.2185,334.3196,90.6619,269.449,0.00048252,7.401e-05,0.0,0 STARLINK-4187,1 52850U 22062W   23215.69547283  .00007401  00000-0  48252-3 0  9995,2 52850  53.2185 334.3196 0001019  90.6619 269.4490 15.08847282 63016,6917.858,95.437,540.428,539.018,0.0
52850.0,STARLINK-4187,PAYLOAD,2023-08-04 08:35:20,15.08836333,0.0001103,53.2185,331.347,92.3152,267.7967,0.00023238,3.412e-05,0.0,0 STARLINK-4187,1 52850U 22062W   23216.35788089  .00003412  00000-0  23238-3 0  9995,2 52850  53.2185 331.3470 0001103  92.3152 267.7967 15.08836333 63119,6917.892,95.438,540.52,538.994,0.0
52850.0,STARLINK-4187,PAYLOAD,2023-08-04 18:07:39,15.08847571,0.0001118,53.2182,329.563,86.0517,274.0603,0.00055113,8.496e-05,0.0,0 STARLINK-4187,1 52850U 22062W   23216.75532014  .00008496  00000-0  55113-3 0  9998,2 52850  53.2182 329.5630 0001118  86.0517 274.0603 15.08847571 63174,6917.857,95.437,540.496,538.949,0.0
52850.0,STARLINK-4187,PAYLOAD,2023-08-05 06:50:44,15.08846253,0.000118,53.2179,327.1852,85.7078,274.4049,0.00050508,7.761e-05,0.0,0 STARLINK-4187,1 52850U 22062W   23217.28524097  .00007761  00000-0  50508-3 0  9996,2 52850  53.2179 327.1852 0001180  85.7078 274.4049 15.08846253 63250,6917.861,95.437,540.543,538.91,0.0
52850.0,STARLINK-4187,PAYLOAD,2023-08-05 14:47:39,15.08864208,0.0001219,53.2173,325.698,84.5676,275.5455,0.0010089,0.00015816,0.0,0 STARLINK-4187,1 52850U 22062W   23217.61643467  .00015816  00000-0  10089-2 0  9995,2 52850  53.2173 325.6980 0001219  84.5676 275.5455 15.08864208 63302,6917.806,95.436,540.515,538.828,0.0
52850.0,STARLINK-4187,PAYLOAD,2023-08-06 00:19:59,15.08823771,0.0001232,53.217,323.9118,121.796,238.3152,-0.00086574,-0.00014033,0.0,0 STARLINK-4187,1 52850U 22062W   23218.01387896 -.00014033  00000-0 -86574-3 0  9996,2 52850  53.2170 323.9118 0001232 121.7960 238.3152 15.08823771 63365,6917.93,95.439,540.647,538.943,0.0
52850.0,STARLINK-4187,PAYLOAD,2023-08-07 00:10:47,15.08815127,0.000106,53.2165,319.4526,114.0659,246.0444,0.00066373,0.00010284,0.0,0 STARLINK-4187,1 52850U 22062W   23219.00749851  .00010284  00000-0  66373-3 0  9996,2 52850  53.2165 319.4526 0001060 114.0659 246.0444 15.08815127 63514,6917.956,95.439,540.555,539.088,0.0
52850.0,STARLINK-4187,PAYLOAD,2023-08-07 12:53:53,15.08840929,9.96e-05,53.2163,317.072,112.9274,247.1823,0.0011256,0.00017672,0.0,0 STARLINK-4187,1 52850U 22062W   23219.53742018  .00017672  00000-0  11256-2 0  9999,2 52850  53.2163 317.0720 0000996 112.9274 247.1823 15.08840929 63598,6917.878,95.437,540.432,539.054,0.0
52850.0,STARLINK-4187,PAYLOAD,2023-08-08 17:30:48,15.08881258,9.55e-05,53.2161,311.7204,98.6915,261.4185,0.0012213,0.00019224,0.0,0 STARLINK-4187,1 52850U 22062W   23220.72972484  .00019224  00000-0  12213-2 0  9993,2 52850  53.2161 311.7204 0000955  98.6915 261.4185 15.08881258 63771,6917.754,95.435,540.28,538.959,0.0
52850.0,STARLINK-4187,PAYLOAD,2023-08-09 09:24:40,15.08844009,0.0001092,53.2164,308.7468,89.4566,270.6551,4.2054e-05,3.82e-06,0.0,0 STARLINK-4187,1 52850U 22062W   23221.39212988  .00000382  00000-0  42054-4 0  9996,2 52850  53.2164 308.7468 0001092  89.4566 270.6551 15.08844009 63878,6917.868,95.437,540.489,538.978,0.0
52850.0,STARLINK-4187,PAYLOAD,2023-08-10 17:12:21,15.08877973,0.0001046,53.2169,302.7998,73.3923,286.7184,0.0012506,0.00019692,0.0,0 STARLINK-4187,1 52850U 22062W   23222.71692108  .00019692  00000-0  12506-2 0  9990,2 52850  53.2169 302.7998 0001046  73.3923 286.7184 15.08877973 64072,6917.764,95.435,540.353,538.906,0.0
52850.0,STARLINK-4187,PAYLOAD,2023-08-10 21:58:32,15.08838381,0.0002873,53.2159,301.9017,93.3234,266.8087,-0.00018291,-3.199e-05,0.0,0 STARLINK-4187,1 52850U 22062W   23222.91565176 -.00003199  00000-0 -18291-3 0  9991,2 52850  53.2159 301.9017 0002873  93.3234 266.8087 15.08838381 64105,6917.885,95.438,541.738,537.763,0.0
